[{"OBJECT_NAME":"STARLINK-36145","OBJECT_ID":"2025-288AA","EPOCH":"2026-03-09T06:48:23.435712","MEAN_MOTION":15.27593375,"ECCENTRICITY":0.00016823,"INCLINATION":43.0036,"RA_OF_ASC_NODE":25.8836,"ARG_OF_PERICENTER":255.2331,"MEAN_ANOMALY":104.8334,"EPHEMERIS_TYPE":0,"CLASSIFICATION_TYPE":"U","NORAD_CAT_ID":66983,"ELEMENT_SET_NO":999,"REV_AT_EPOCH":1522,"BSTAR":0.0010532077,"MEAN_MOTION_DOT":0.00028845,"MEAN_MOTION_DDOT":0},{"OBJECT_NAME":"CZ-6A DEB","OBJECT_ID":"2022-151DE","EPOCH":"2026-03-09T09:45:43.657920","MEAN_MOTION":15.34292219,"ECCENTRICITY":0.00393756,"INCLINATION":99.0022,"RA_OF_ASC_NODE":218.5596,"ARG_OF_PERICENTER":192.6197,"MEAN_ANOMALY":167.4059,"EPHEMERIS_TYPE":0,"CLASSIFICATION_TYPE":"U","NORAD_CAT_ID":54359,"ELEMENT_SET_NO":999,"REV_AT_EPOCH":10560,"BSTAR":0.0065240017,"MEAN_MOTION_DOT":0.00228186,"MEAN_MOTION_DDOT":0}]
